STARLINK-4330           
1 53080U 22077AP  22207.50001157 -.01396414  00000+0 -16640-1 0  9993
2 53080  97.6554  26.4803 0001744  68.2185 331.0737 15.63718805  3015
STARLINK-4326           
1 53081U 22077AQ  22207.50001157 -.01394768  00000+0 -16598-1 0  9996
2 53081  97.6554  26.4799 0001624  76.5319 325.4036 15.63750858  3011
STARLINK-4321           
1 53082U 22077AR  22207.50001157 -.01396174  00000+0 -16621-1 0  9997
2 53082  97.6555  26.4798 0001657  79.9373 321.3369 15.63743734  3014
STARLINK-4251           
1 53083U 22077AS  22207.58334491 -.01397592  00000+0 -19991-1 0  9994
2 53083  97.6555  26.5836 0001976  58.1250  63.3432 15.59002741  3022
STARLINK-4319           
1 53084U 22077AT  22207.50001157 -.01395114  00000+0 -16597-1 0  9994
2 53084  97.6555  26.4799 0001603  93.1161 309.4796 15.63759549  3013
STARLINK-4324           
1 53085U 22077AU  22207.50001157 -.01396165  00000+0 -16604-1 0  9991
2 53085  97.6554  26.4800 0001664  75.5734 328.8829 15.63769395  3015
STARLINK-4318           
1 53086U 22077AV  22207.50001157 -.01396118  00000+0 -16609-1 0  9995
2 53086  97.6555  26.4797 0001613  81.1253 322.6703 15.63761308  3014
STARLINK-4329           
1 53087U 22077AW  22207.50001157 -.01395661  00000+0 -16587-1 0  9993
2 53087  97.6554  26.4798 0001624  82.5020 323.2751 15.63785592  3015
STARLINK-4333           
1 53088U 22077AX  22207.50001157 -.01395897  00000+0 -16595-1 0  9994
2 53088  97.6554  26.4796 0001707  66.4980 338.6189 15.63777352  3012
FALCON 9 DEB            
1 53089U 22077AY  22207.42483744  .00184937  14675-4  61793-3 0  9990
2 53089  97.6742  26.7811 0008766 206.1699 153.9132 15.90136896  2449
FALCON 9 DEB            
1 53090U 22077AZ  22207.42031281  .00198338  16649-4  64305-3 0  9992
2 53090  97.6720  26.7848 0006720 194.0793 166.0293 15.90755063  2441
FALCON 9 DEB            
1 53091U 22077BA  22207.40881184  .00220802  20437-4  66202-3 0  9996
2 53091  97.6666  26.7925 0010975 187.3384 172.7731 15.92206940  2443
FALCON 9 DEB            
1 53092U 22077BB  22207.40597005  .00214613  19471-4  63589-3 0  9997
2 53092  97.6661  26.7950 0011003 172.0837 188.0612 15.92436726  2449
TIANLIAN 2-03           
1 53100U 22078A   22207.18118123  .00000078  00000+0  00000+0 0  9999
2 53100   2.9931 284.8820 0002393 190.5658 264.2621  1.00270688   294
CZ-3B R/B               
1 53101U 22078B   22204.03167106  .00048999 -60362-6  12358-2 0  9997
2 53101  27.1474 171.7627 7240902 180.2597 179.0299  2.37671641   255
LARES-2                 
1 53105U 22080A   22207.20658432 -.00000007  00000+0  00000+0 0  9995
2 53105  70.1524  73.0152 0005622 282.6901  77.3303  6.38965313   812
MTCUBE 2 (ROBUSTA 1F)   
1 53106U 22080B   22207.29204379 -.00000003  00000+0  00000+0 0  9998
2 53106  70.1672  72.9778 0009368 252.0443 107.9512  6.42554351   815
ASTROBIOCUBESAT         
1 53107U 22080C   22207.30072326 -.00000003  00000+0  00000+0 0  9996
2 53107  70.1510  72.9762 0012473 246.4223 113.5139  6.42111379   710
TRISAT-R                
1 53108U 22080D   22206.20970201 -.00000003  00000+0  00000+0 0  9994
2 53108  70.1621  73.3396 0013493 258.9499 100.9663  6.42152274   652
GREENCUBE               
1 53109U 22080E   22206.51321638 -.00000003  00000+0  00000+0 0  9993
2 53109  70.1370  73.0303 0008919 241.2786 118.6981  6.42583494   651
2022-080F               
1 53110U 22080F   22207.29365325 -.00000003  00000+0  00000+0 0  9992
2 53110  70.1572  72.9657 0089790  89.4547 271.6397  6.42507134   704
CELESTA                 
1 53111U 22080G   22207.29245230 -.00000003  00000+0  00000+0 0  9995
2 53111  70.1542  72.9763 0008990 222.7002 137.3038  6.42530706   690
2022-080H               
1 53112U 22080H   22207.29133216 -.00000003  00000+0  00000+0 0  9996
2 53112  70.1386  72.9501 0009345 259.2772 100.6820  6.42593043   708
DRAGON CRS-25           
1 53113U 22081A   22206.36826715  .00008538  00000+0  15673-3 0  9994
2 53113  51.6427 147.4701 0004955  48.1956  28.6743 15.50120579351105
SUPERVIEW NEO-2 O1      
1 53128U 22082A   22207.46427973  .00003993  00000+0  16459-3 0  9999
2 53128  97.3841 215.3120 0011859 224.8458 291.3165 15.24598820  1602
CZ-2C DEB               
1 53129U 22082B   22206.57914320  .00016259  00000+0  64653-3 0  9996
2 53129  97.3835 214.4452 0011948 237.2615 122.7255 15.25300068  1474
SUPERVIEW NEO-2 02      
1 53130U 22082C   22207.45638311  .00004027  00000+0  16206-3 0  9990
2 53130  97.3838 215.3167 0012030 242.2065 260.8558 15.25400860  1606
CZ-2C R/B               
1 53131U 22082D   22206.77284658  .00009239  00000+0  25651-3 0  9990
2 53131  97.3580 214.7086 0048913 338.6155  21.2922 15.35896660  1515
STARLINK-4063           
1 53132U 22083A   22207.16668981 -.01206058  00000+0 -81240-2 0  9997
2 53132  53.2175   4.4196 0003923 359.1639  81.8492 15.77195573  1997
STARLINK-4154           
1 53133U 22083B   22207.16668981 -.01206362  00000+0 -81656-2 0  9997
2 53133  53.2175   4.4266 0003819   0.8356  77.1715 15.77089785  1999
STARLINK-4150           
1 53134U 22083C   22207.16668981 -.01207259  00000+0 -81566-2 0  9994
2 53134  53.2175   4.4229 0003079   5.6306  73.8832 15.77143296  1996
STARLINK-4023           
1 53135U 22083D   22207.50001157 -.01208160  00000+0 -84985-2 0  9999
2 53135  53.2175   2.7674 0004250 335.3133 196.2234 15.76227986  2057
STARLINK-4152           
1 53136U 22083E   22207.50001157 -.01209181  00000+0 -84998-2 0  9998
2 53136  53.2175   2.7658 0004149 342.6419 189.4141 15.76247432  2054
STARLINK-4145           
1 53137U 22083F   22207.50001157 -.01206481  00000+0 -84642-2 0  9995
2 53137  53.2175   2.7644 0004395 334.3408 198.7573 15.76281330  2056
STARLINK-4141           
1 53138U 22083G   22207.16668981 -.01249925  00000+0 -57460-2 0  9990
2 53138  53.2174   4.1103 0008362  49.4669 187.8329 15.85353480  2002
STARLINK-4185           
1 53139U 22083H   22207.58334491 -.01199902  00000+0 -84707-2 0  9996
2 53139  53.2174   2.3466 0004056 345.8338 302.4846 15.76130905  2067
STARLINK-4170           
1 53140U 22083J   22207.50001157 -.01210272  00000+0 -84733-2 0  9993
2 53140  53.2175   2.7607 0004253 338.3032 196.3526 15.76338705  2050
STARLINK-4103           
1 53141U 22083K   22207.16668981 -.01207712  00000+0 -80963-2 0  9996
2 53141  53.2175   4.4146 0003973 359.0766  84.9153 15.77305040  1997
STARLINK-4101           
1 53142U 22083L   22207.16668981 -.01206693  00000+0 -81104-2 0  9992
2 53142  53.2175   4.4172 0003524   2.8063  79.6907 15.77251730  1996
STARLINK-4102           
1 53143U 22083M   22207.16668981 -.01210001  00000+0 -81057-2 0  9998
2 53143  53.2175   4.4137 0004045 355.5829  88.8970 15.77325599  1992
STARLINK-4100           
1 53144U 22083N   22207.16668981 -.01206523  00000+0 -81024-2 0  9997
2 53144  53.2175   4.4163 0003588   2.6092  80.3864 15.77269225  1997
STARLINK-4106           
1 53145U 22083P   22207.16668981 -.01209737  00000+0 -80913-2 0  9994
2 53145  53.2175   4.4118 0004010 355.0672  90.4086 15.77360128  1990
STARLINK-4099           
1 53146U 22083Q   22207.16668981 -.01206643  00000+0 -80978-2 0  9999
2 53146  53.2175   4.4153 0003426   3.8636  79.6322 15.77286604  1996
STARLINK-4094           
1 53147U 22083R   22207.58334491 -.01196855  00000+0 -83911-2 0  9995
2 53147  53.2174   2.3384 0004498 337.7863 314.7168 15.76271898  2068
STARLINK-4066           
1 53148U 22083S   22207.16668981 -.01209043  00000+0 -80927-2 0  9992
2 53148  53.2175   4.4124 0004003 357.1422  87.8382 15.77342022  1990
STARLINK-4021           
1 53149U 22083T   22207.16668981 -.01207433  00000+0 -79843-2 0  9999
2 53149  53.2174   4.3979 0003923 359.1761  93.1845 15.77608893  2003
STARLINK-4038           
1 53150U 22083U   22207.16668981 -.01216124  00000+0 -81252-2 0  9995
2 53150  53.2175   4.4095 0003928 350.3961  96.0660 15.77400313  1997
STARLINK-4040           
1 53151U 22083V   22207.16668981 -.01214730  00000+0 -80961-2 0  9993
2 53151  53.2175   4.4071 0003930 350.1540  97.7975 15.77451179  1999
STARLINK-4045           
1 53152U 22083W   22207.16668981 -.01208522  00000+0 -80640-2 0  9990
2 53152  53.2175   4.4086 0003903 356.9346  90.0315 15.77411576  1995
STARLINK-4098           
1 53153U 22083X   22207.16668981 -.01211625  00000+0 -80658-2 0  9998
2 53153  53.2175   4.4062 0004018 354.7839  93.6506 15.77469019  2000
STARLINK-4077           
1 53154U 22083Y   22207.16668981 -.01208293  00000+0 -80552-2 0  9999
2 53154  53.2174   4.4076 0003954 357.0654  90.3884 15.77430308  1993
STARLINK-4088           
1 53155U 22083Z   22207.16668981 -.01210127  00000+0 -80355-2 0  9990
2 53155  53.2175   4.4032 0003998 356.3815  93.5266 15.77521839  2008
STARLINK-4087           
1 53156U 22083AA  22207.16668981 -.01211246  00000+0 -80500-2 0  9996
2 53156  53.2175   4.4037 0004021 355.1525  94.2649 15.77504634  2004
STARLINK-4093           
1 53157U 22083AB  22207.16668981 -.01207669  00000+0 -80084-2 0  9998
2 53157  53.2175   4.4013 0003221   5.1127  85.7724 15.77556986  2006
STARLINK-4054           
1 53158U 22083AC  22207.16668981 -.01215926  00000+0 -80911-2 0  9993
2 53158  53.2175   4.4048 0004016 349.7368  99.1965 15.77488212  2004
STARLINK-4111           
1 53159U 22083AD  22207.58334491 -.01199075  00000+0 -83285-2 0  9999
2 53159  53.2174   2.3262 0004393 339.9072 318.8172 15.76488039  2063
STARLINK-4096           
1 53160U 22083AE  22207.16668981 -.01212217  00000+0 -80438-2 0  9990
2 53160  53.2175   4.4018 0004063 354.1396  96.2584 15.77541101  2009
STARLINK-4055           
1 53161U 22083AF  22207.16668981 -.01211865  00000+0 -80031-2 0  9998
2 53161  53.2174   4.3963 0003968 353.9277  99.4070 15.77647575  2002
STARLINK-4114           
1 53162U 22083AG  22207.16668981 -.01209405  00000+0 -80109-2 0  9992
2 53162  53.2175   4.3999 0004009 355.8517  95.5280 15.77574693  2008
